1 26871U 01031A   12079.21666854 -.00000309  00000-0  10000-3 0  5067
2 26871 002.0571 073.9525 0003442 316.1466 165.3499 01.00266733 39098